[Satellite]
VERSION=1.1
NAME=DIAMOND GREEN
NICKNAME=DIAMOND GREEN
TLE1=1 42785U 17036W   18020.73815456  .00001083  00000-0  51725-4 0  9999
TLE2=2 42785  97.4227  82.7744 0011245 228.5542 131.4729 15.21139866 32163
